[{"OBJECT_NAME":"STARLINK-36926","OBJECT_ID":"2026-039P","EPOCH":"2026-03-07T06:00:00.999648","MEAN_MOTION":15.93237064,"ECCENTRICITY":0.00014227,"INCLINATION":42.9972,"RA_OF_ASC_NODE":69.9255,"ARG_OF_PERICENTER":271.3753,"MEAN_ANOMALY":248.1457,"EPHEMERIS_TYPE":0,"CLASSIFICATION_TYPE":"U","NORAD_CAT_ID":67999,"ELEMENT_SET_NO":999,"REV_AT_EPOCH":248,"BSTAR":-0.0045664435,"MEAN_MOTION_DOT":-0.01668399,"MEAN_MOTION_DDOT":0.00078115011},{"OBJECT_NAME":"STARLINK-36931","OBJECT_ID":"2026-039Q","EPOCH":"2026-03-07T06:00:00.999648","MEAN_MOTION":15.93379987,"ECCENTRICITY":0.00014664,"INCLINATION":42.9973,"RA_OF_ASC_NODE":69.9202,"ARG_OF_PERICENTER":268.87,"MEAN_ANOMALY":252.795,"EPHEMERIS_TYPE":0,"CLASSIFICATION_TYPE":"U","NORAD_CAT_ID":68000,"ELEMENT_SET_NO":999,"REV_AT_EPOCH":248,"BSTAR":-0.0044999927,"MEAN_MOTION_DOT":-0.01656743,"MEAN_MOTION_DDOT":0.00077220593},{"OBJECT_NAME":"STARLINK-36903","OBJECT_ID":"2026-039R","EPOCH":"2026-03-07T06:00:00.999648","MEAN_MOTION":15.9351434,"ECCENTRICITY":0.00014934,"INCLINATION":42.9974,"RA_OF_ASC_NODE":69.9134,"ARG_OF_PERICENTER":271.7115,"MEAN_ANOMALY":252.6197,"EPHEMERIS_TYPE":0,"CLASSIFICATION_TYPE":"U","NORAD_CAT_ID":68001,"ELEMENT_SET_NO":999,"REV_AT_EPOCH":248,"BSTAR":-0.0044499508,"MEAN_MOTION_DOT":-0.016501,"MEAN_MOTION_DDOT":0.00076752765},{"OBJECT_NAME":"STARLINK-36898","OBJECT_ID":"2026-039S","EPOCH":"2026-03-07T06:00:00.999648","MEAN_MOTION":15.93792379,"ECCENTRICITY":0.00015243,"INCLINATION":42.9972,"RA_OF_ASC_NODE":69.9003,"ARG_OF_PERICENTER":273.5406,"MEAN_ANOMALY":255.8337,"EPHEMERIS_TYPE":0,"CLASSIFICATION_TYPE":"U","NORAD_CAT_ID":68002,"ELEMENT_SET_NO":999,"REV_AT_EPOCH":248,"BSTAR":-0.0043864458,"MEAN_MOTION_DOT":-0.01650721,"MEAN_MOTION_DDOT":0.00077018557},{"OBJECT_NAME":"STARLINK-36862","OBJECT_ID":"2026-039T","EPOCH":"2026-03-07T06:00:00.999648","MEAN_MOTION":15.94063137,"ECCENTRICITY":0.00015304,"INCLINATION":42.9973,"RA_OF_ASC_NODE":69.8883,"ARG_OF_PERICENTER":271.8406,"MEAN_ANOMALY":262.2615,"EPHEMERIS_TYPE":0,"CLASSIFICATION_TYPE":"U","NORAD_CAT_ID":68003,"ELEMENT_SET_NO":999,"REV_AT_EPOCH":248,"BSTAR":-0.0042820434,"MEAN_MOTION_DOT":-0.01635024,"MEAN_MOTION_DDOT":0.00075878303},{"OBJECT_NAME":"STARLINK-36888","OBJECT_ID":"2026-039U","EPOCH":"2026-03-07T06:00:00.999648","MEAN_MOTION":15.9365278,"ECCENTRICITY":0.00014755,"INCLINATION":42.9974,"RA_OF_ASC_NODE":69.9073,"ARG_OF_PERICENTER":274.5871,"MEAN_ANOMALY":252.1933,"EPHEMERIS_TYPE":0,"CLASSIFICATION_TYPE":"U","NORAD_CAT_ID":68004,"ELEMENT_SET_NO":999,"REV_AT_EPOCH":248,"BSTAR":-0.0044136269,"MEAN_MOTION_DOT":-0.01648698,"MEAN_MOTION_DDOT":0.00076737941},{"OBJECT_NAME":"STARLINK-36910","OBJECT_ID":"2026-039V","EPOCH":"2026-03-07T06:00:00.999648","MEAN_MOTION":15.9392745,"ECCENTRICITY":0.00015113,"INCLINATION":42.9972,"RA_OF_ASC_NODE":69.894,"ARG_OF_PERICENTER":274.6385,"MEAN_ANOMALY":257.2299,"EPHEMERIS_TYPE":0,"CLASSIFICATION_TYPE":"U","NORAD_CAT_ID":68005,"ELEMENT_SET_NO":999,"REV_AT_EPOCH":248,"BSTAR":-0.0043473463,"MEAN_MOTION_DOT":-0.01647834,"MEAN_MOTION_DDOT":0.00076873796},{"OBJECT_NAME":"STARLINK-36889","OBJECT_ID":"2026-039W","EPOCH":"2026-03-07T06:00:00.999648","MEAN_MOTION":15.94202721,"ECCENTRICITY":0.00015085,"INCLINATION":42.9972,"RA_OF_ASC_NODE":69.8819,"ARG_OF_PERICENTER":276.1544,"MEAN_ANOMALY":260.2853,"EPHEMERIS_TYPE":0,"CLASSIFICATION_TYPE":"U","NORAD_CAT_ID":68006,"ELEMENT_SET_NO":999,"REV_AT_EPOCH":248,"BSTAR":-0.0042499863,"MEAN_MOTION_DOT":-0.01634909,"MEAN_MOTION_DDOT":0.00075974407},{"OBJECT_NAME":"STARLINK-36592","OBJECT_ID":"2026-039X","EPOCH":"2026-03-07T06:00:00.999648","MEAN_MOTION":15.94344154,"ECCENTRICITY":0.00014907,"INCLINATION":42.9971,"RA_OF_ASC_NODE":69.8767,"ARG_OF_PERICENTER":274.8185,"MEAN_ANOMALY":263.9527,"EPHEMERIS_TYPE":0,"CLASSIFICATION_TYPE":"U","NORAD_CAT_ID":68007,"ELEMENT_SET_NO":999,"REV_AT_EPOCH":248,"BSTAR":-0.0042629889,"MEAN_MOTION_DOT":-0.01652126,"MEAN_MOTION_DDOT":0.00077566354},{"OBJECT_NAME":"STARLINK-36911","OBJECT_ID":"2026-039Y","EPOCH":"2026-03-07T06:00:00.999648","MEAN_MOTION":15.9447033,"ECCENTRICITY":0.00015958,"INCLINATION":42.9973,"RA_OF_ASC_NODE":69.8704,"ARG_OF_PERICENTER":271.7619,"MEAN_ANOMALY":269.4535,"EPHEMERIS_TYPE":0,"CLASSIFICATION_TYPE":"U","NORAD_CAT_ID":68008,"ELEMENT_SET_NO":999,"REV_AT_EPOCH":248,"BSTAR":-0.0041587103,"MEAN_MOTION_DOT":-0.01623033,"MEAN_MOTION_DDOT":0.00075161668},{"OBJECT_NAME":"STARLINK-36956","OBJECT_ID":"2026-039Z","EPOCH":"2026-03-07T06:00:00.999648","MEAN_MOTION":15.94607705,"ECCENTRICITY":0.00014406,"INCLINATION":42.9971,"RA_OF_ASC_NODE":69.8644,"ARG_OF_PERICENTER":270.0292,"MEAN_ANOMALY":273.5232,"EPHEMERIS_TYPE":0,"CLASSIFICATION_TYPE":"U","NORAD_CAT_ID":68009,"ELEMENT_SET_NO":999,"REV_AT_EPOCH":248,"BSTAR":-0.0041325012,"MEAN_MOTION_DOT":-0.01624667,"MEAN_MOTION_DDOT":0.0007540528},{"OBJECT_NAME":"STARLINK-36953","OBJECT_ID":"2026-039AA","EPOCH":"2026-03-07T06:00:00.999648","MEAN_MOTION":15.94873726,"ECCENTRICITY":0.00015291,"INCLINATION":42.997,"RA_OF_ASC_NODE":69.8513,"ARG_OF_PERICENTER":271.0954,"MEAN_ANOMALY":277.5187,"EPHEMERIS_TYPE":0,"CLASSIFICATION_TYPE":"U","NORAD_CAT_ID":68010,"ELEMENT_SET_NO":999,"REV_AT_EPOCH":248,"BSTAR":-0.0040767642,"MEAN_MOTION_DOT":-0.01625839,"MEAN_MOTION_DDOT":0.00075708365},{"OBJECT_NAME":"STARLINK-36991","OBJECT_ID":"2026-039AB","EPOCH":"2026-03-07T06:00:00.999648","MEAN_MOTION":15.95001873,"ECCENTRICITY":0.0001492,"INCLINATION":42.997,"RA_OF_ASC_NODE":69.8451,"ARG_OF_PERICENTER":270.6801,"MEAN_ANOMALY":280.4193,"EPHEMERIS_TYPE":0,"CLASSIFICATION_TYPE":"U","NORAD_CAT_ID":68011,"ELEMENT_SET_NO":999,"REV_AT_EPOCH":248,"BSTAR":-0.0040320496,"MEAN_MOTION_DOT":-0.01619221,"MEAN_MOTION_DDOT":0.00075238637},{"OBJECT_NAME":"STARLINK-36936","OBJECT_ID":"2026-039AC","EPOCH":"2026-03-07T06:00:00.999648","MEAN_MOTION":15.95273023,"ECCENTRICITY":0.00014718,"INCLINATION":42.997,"RA_OF_ASC_NODE":69.8323,"ARG_OF_PERICENTER":264.8004,"MEAN_ANOMALY":291.1718,"EPHEMERIS_TYPE":0,"CLASSIFICATION_TYPE":"U","NORAD_CAT_ID":68012,"ELEMENT_SET_NO":999,"REV_AT_EPOCH":248,"BSTAR":-0.0040046236,"MEAN_MOTION_DOT":-0.0163176,"MEAN_MOTION_DDOT":0.0007652671},{"OBJECT_NAME":"STARLINK-36967","OBJECT_ID":"2026-039AD","EPOCH":"2026-03-07T06:00:00.999648","MEAN_MOTION":15.94738799,"ECCENTRICITY":0.00015112,"INCLINATION":42.9969,"RA_OF_ASC_NODE":69.8577,"ARG_OF_PERICENTER":270.7299,"MEAN_ANOMALY":275.2823,"EPHEMERIS_TYPE":0,"CLASSIFICATION_TYPE":"U","NORAD_CAT_ID":68013,"ELEMENT_SET_NO":999,"REV_AT_EPOCH":248,"BSTAR":-0.0040929538,"MEAN_MOTION_DOT":-0.01620557,"MEAN_MOTION_DDOT":0.00075153143},{"OBJECT_NAME":"STARLINK-36985","OBJECT_ID":"2026-039AE","EPOCH":"2026-03-07T06:00:00.999648","MEAN_MOTION":15.95140979,"ECCENTRICITY":0.00014628,"INCLINATION":42.997,"RA_OF_ASC_NODE":69.8392,"ARG_OF_PERICENTER":273.4741,"MEAN_ANOMALY":279.9819,"EPHEMERIS_TYPE":0,"CLASSIFICATION_TYPE":"U","NORAD_CAT_ID":68014,"ELEMENT_SET_NO":999,"REV_AT_EPOCH":248,"BSTAR":-0.0040209779,"MEAN_MOTION_DOT":-0.01626834,"MEAN_MOTION_DDOT":0.00075999098}]
